{"fetched_at":"2026-03-29T16:36:15Z","count":15609,"tles":[{"name":"STARLINK-35153","line1":"1 65625U 25210D   26087.74745290  .00027130  00000+0  92426-3 0  9993","line2":"2 65625  53.1594 218.2202 0001395  69.7180 290.3971 15.30218136 30575","category":"Starlink"}]}